{"type": "FeatureCollection", "features": [ {"type": "Feature", "properties": {"norad_id": 66756, "name": "TRANSPORTER-15 CU", "group": "last-30-days", "lat": 9.9945624783353, "lon": 65.55530348932503, "alt_km": 514.6128526490165, "timestamp": "2025-12-21T05:44:50.291157+00:00", "meta": {"OBJECT_NAME": "TRANSPORTER-15 CU", "OBJECT_ID": "2025-276CU", "EPOCH": "2025-12-20T18:37:41.478528", "MEAN_MOTION": 15.17919312, "ECCENTRICITY": 0.00013564, "INCLINATION": 97.4425, "RA_OF_ASC_NODE": 66.4198, "ARG_OF_PERICENTER": 161.4312, "MEAN_ANOMALY": 198.6972, "EPHEMERIS_TYPE": 0, "CLASSIFICATION_TYPE": "U", "NORAD_CAT_ID": 66756, "ELEMENT_SET_NO": 999, "REV_AT_EPOCH": 334, "BSTAR": 0.00028376318, "MEAN_MOTION_DOT": 5.69e-05, "MEAN_MOTION_DDOT": 0}, "tle": {"line1": "1 66756U 25276CU  25354.77617452  .00005690  00000+0  28376-3 0  9998", "line2": "2 66756  97.4425  66.4198 0001356 161.4312 198.6972 15.17919312  3341"}}, "geometry": {"type": "Point", "coordinates": [65.55530348932503, 9.9945624783353]}}, {"type": "Feature", "properties": {"norad_id": 66757, "name": "TRANSPORTER-15 CV", "group": "last-30-days", "lat": 16.839882294757338, "lon": 64.61343967114716, "alt_km": 513.2461889166962, "timestamp": "2025-12-21T05:44:50.291193+00:00", "meta": {"OBJECT_NAME": "TRANSPORTER-15 CV", "OBJECT_ID": "2025-276CV", "EPOCH": "2025-12-20T18:35:55.269600", "MEAN_MOTION": 15.18033964, "ECCENTRICITY": 0.00015005, "INCLINATION": 97.4433, "RA_OF_ASC_NODE": 66.4244, "ARG_OF_PERICENTER": 161.7349, "MEAN_ANOMALY": 198.3939, "EPHEMERIS_TYPE": 0, "CLASSIFICATION_TYPE": "U", "NORAD_CAT_ID": 66757, "ELEMENT_SET_NO": 999, "REV_AT_EPOCH": 334, "BSTAR": 0.00026115958, "MEAN_MOTION_DOT": 5.248e-05, "MEAN_MOTION_DDOT": 0}, "tle": {"line1": "1 66757U 25276CV  25354.77494525  .00005248  00000+0  26116-3 0  9992", "line2": "2 66757  97.4433  66.4244 0001500 161.7349 198.3939 15.18033964  3348"}}, "geometry": {"type": "Point", "coordinates": [64.61343967114716, 16.839882294757338]}}, {"type": "Feature", "properties": {"norad_id": 66758, "name": "TRANSPORTER-15 CW", "group": "last-30-days", "lat": 18.281686951507012, "lon": 64.398191426044, "alt_km": 512.5633665649266, "timestamp": "2025-12-21T05:44:50.291211+00:00", "meta": {"OBJECT_NAME": "TRANSPORTER-15 CW", "OBJECT_ID": "2025-276CW", "EPOCH": "2025-12-20T18:35:32.526528", "MEAN_MOTION": 15.18042688, "ECCENTRICITY": 0.00011629, "INCLINATION": 97.4402, "RA_OF_ASC_NODE": 66.4156, "ARG_OF_PERICENTER": 139.714, "MEAN_ANOMALY": 220.418, "EPHEMERIS_TYPE": 0, "CLASSIFICATION_TYPE": "U", "NORAD_CAT_ID": 66758, "ELEMENT_SET_NO": 999, "REV_AT_EPOCH": 334, "BSTAR": 0.00025738527, "MEAN_MOTION_DOT": 5.173e-05, "MEAN_MOTION_DDOT": 0}, "tle": {"line1": "1 66758U 25276CW  25354.77468202  .00005173  00000+0  25739-3 0  9993", "line2": "2 66758  97.4402  66.4156 0001162 139.7140 220.4180 15.18042688  3343"}}, "geometry": {"type": "Point", "coordinates": [64.398191426044, 18.281686951507012]}}, {"type": "Feature", "properties": {"norad_id": 66759, "name": "TRANSPORTER-15 CX", "group": "last-30-days", "lat": 26.38124152255376, "lon": 63.156071860393794, "alt_km": 510.9187409125989, "timestamp": "2025-12-21T05:44:50.291223+00:00", "meta": {"OBJECT_NAME": "TRANSPORTER-15 CX", "OBJECT_ID": "2025-276CX", "EPOCH": "2025-12-20T18:33:26.763552", "MEAN_MOTION": 15.18176362, "ECCENTRICITY": 0.00015433, "INCLINATION": 97.4387, "RA_OF_ASC_NODE": 66.4133, "ARG_OF_PERICENTER": 143.4747, "MEAN_ANOMALY": 216.6593, "EPHEMERIS_TYPE": 0, "CLASSIFICATION_TYPE": "U", "NORAD_CAT_ID": 66759, "ELEMENT_SET_NO": 999, "REV_AT_EPOCH": 334, "BSTAR": 0.00032066875, "MEAN_MOTION_DOT": 6.487e-05, "MEAN_MOTION_DDOT": 0}, "tle": {"line1": "1 66759U 25276CX  25354.77322643  .00006487  00000+0  32067-3 0  9993", "line2": "2 66759  97.4387  66.4133 0001543 143.4747 216.6593 15.18176362  3341"}}, "geometry": {"type": "Point", "coordinates": [63.156071860393794, 26.38124152255376]}}, {"type": "Feature", "properties": {"norad_id": 66760, "name": "TRANSPORTER-15 CY", "group": "last-30-days", "lat": 28.546445762293416, "lon": 62.80153272062668, "alt_km": 510.10954445094376, "timestamp": "2025-12-21T05:44:50.291233+00:00", "meta": {"OBJECT_NAME": "TRANSPORTER-15 CY", "OBJECT_ID": "2025-276CY", "EPOCH": "2025-12-20T15:23:02.436288", "MEAN_MOTION": 15.18160789, "ECCENTRICITY": 0.00014587, "INCLINATION": 97.441, "RA_OF_ASC_NODE": 66.2901, "ARG_OF_PERICENTER": 118.3187, "MEAN_ANOMALY": 241.8194, "EPHEMERIS_TYPE": 0, "CLASSIFICATION_TYPE": "U", "NORAD_CAT_ID": 66760, "ELEMENT_SET_NO": 999, "REV_AT_EPOCH": 332, "BSTAR": 0.00035799307, "MEAN_MOTION_DOT": 7.247e-05, "MEAN_MOTION_DDOT": 0}, "tle": {"line1": "1 66760U 25276CY  25354.64100042  .00007247  00000+0  35799-3 0  9998", "line2": "2 66760  97.4410  66.2901 0001458 118.3187 241.8194 15.18160789  3326"}}, "geometry": {"type": "Point", "coordinates": [62.80153272062668, 28.546445762293416]}}, {"type": "Feature", "properties": {"norad_id": 66761, "name": "TRANSPORTER-15 CZ", "group": "last-30-days", "lat": 40.623980911448946, "lon": 60.44672377830556, "alt_km": 507.22248014012166, "timestamp": "2025-12-21T05:44:50.291243+00:00", "meta": {"OBJECT_NAME": "TRANSPORTER-15 CZ", "OBJECT_ID": "2025-276CZ", "EPOCH": "2025-12-20T15:19:58.775808", "MEAN_MOTION": 15.18437987, "ECCENTRICITY": 0.0001607, "INCLINATION": 97.4408, "RA_OF_ASC_NODE": 66.2929, "ARG_OF_PERICENTER": 125.19, "MEAN_ANOMALY": 234.9485, "EPHEMERIS_TYPE": 0, "CLASSIFICATION_TYPE": "U", "NORAD_CAT_ID": 66761, "ELEMENT_SET_NO": 999, "REV_AT_EPOCH": 332, "BSTAR": 0.00064406, "MEAN_MOTION_DOT": 0.00013207, "MEAN_MOTION_DDOT": 0}, "tle": {"line1": "1 66761U 25276CZ  25354.63887472  .00013207  00000+0  64406-3 0  9997", "line2": "2 66761  97.4408  66.2929 0001607 125.1900 234.9485 15.18437987  3322"}}, "geometry": {"type": "Point", "coordinates": [60.44672377830556, 40.623980911448946]}}, {"type": "Feature", "properties": {"norad_id": 66762, "name": "HYDROGNSS-1", "group": "last-30-days", "lat": -38.988546951684604, "lon": 72.92592749143152, "alt_km": 519.7814368370182, "timestamp": "2025-12-21T05:44:50.291254+00:00", "meta": {"OBJECT_NAME": "HYDROGNSS-1", "OBJECT_ID": "2025-276DA", "EPOCH": "2025-12-20T04:35:32.950176", "MEAN_MOTION": 15.1713775, "ECCENTRICITY": 0.00025207, "INCLINATION": 97.4418, "RA_OF_ASC_NODE": 65.8233, "ARG_OF_PERICENTER": 306.2069, "MEAN_ANOMALY": 53.8931, "EPHEMERIS_TYPE": 0, "CLASSIFICATION_TYPE": "U", "NORAD_CAT_ID": 66762, "ELEMENT_SET_NO": 999, "REV_AT_EPOCH": 325, "BSTAR": -0.0031238765, "MEAN_MOTION_DOT": -0.0006147, "MEAN_MOTION_DDOT": 0}, "tle": {"line1": "1 66762U 25276DA  25354.19135359 -.00061470  00000+0 -31239-2 0  9993", "line2": "2 66762  97.4418  65.8233 0002520 306.2069  53.8931 15.17137750  3250"}}, "geometry": {"type": "Point", "coordinates": [72.92592749143152, -38.988546951684604]}}, {"type": "Feature", "properties": {"norad_id": 66763, "name": "HYDROGNSS-2", "group": "last-30-days", "lat": -28.94058019888086, "lon": 71.0062755912316, "alt_km": 521.330112021833, "timestamp": "2025-12-21T05:44:50.291276+00:00", "meta": {"OBJECT_NAME": "HYDROGNSS-2", "OBJECT_ID": "2025-276DB", "EPOCH": "2025-12-20T04:32:57.777504", "MEAN_MOTION": 15.17256655, "ECCENTRICITY": 0.00010994, "INCLINATION": 97.443, "RA_OF_ASC_NODE": 65.8296, "ARG_OF_PERICENTER": 138.4182, "MEAN_ANOMALY": 221.7136, "EPHEMERIS_TYPE": 0, "CLASSIFICATION_TYPE": "U", "NORAD_CAT_ID": 66763, "ELEMENT_SET_NO": 999, "REV_AT_EPOCH": 325, "BSTAR": -0.0041962283, "MEAN_MOTION_DOT": -0.00082583, "MEAN_MOTION_DDOT": 0}, "tle": {"line1": "1 66763U 25276DB  25354.18955761 -.00082583  00000+0 -41962-2 0  9992", "line2": "2 66763  97.4430  65.8296 0001099 138.4182 221.7136 15.17256655  3254"}}, "geometry": {"type": "Point", "coordinates": [71.0062755912316, -28.94058019888086]}}, {"type": "Feature", "properties": {"norad_id": 66764, "name": "TRANSPORTER-15 DC", "group": "last-30-days", "lat": -5.7182319326510305, "lon": 67.614651811221, "alt_km": 517.7946252870543, "timestamp": "2025-12-21T05:44:50.291289+00:00", "meta": {"OBJECT_NAME": "TRANSPORTER-15 DC", "OBJECT_ID": "2025-276DC", "EPOCH": "2025-12-20T18:41:45.708864", "MEAN_MOTION": 15.1767287, "ECCENTRICITY": 0.00018586, "INCLINATION": 97.4415, "RA_OF_ASC_NODE": 66.4122, "ARG_OF_PERICENTER": 204.2456, "MEAN_ANOMALY": 155.869, "EPHEMERIS_TYPE": 0, "CLASSIFICATION_TYPE": "U", "NORAD_CAT_ID": 66764, "ELEMENT_SET_NO": 999, "REV_AT_EPOCH": 334, "BSTAR": 0.00016128178, "MEAN_MOTION_DOT": 3.181e-05, "MEAN_MOTION_DDOT": 0}, "tle": {"line1": "1 66764U 25276DC  25354.77900126  .00003181  00000+0  16128-3 0  9995", "line2": "2 66764  97.4415  66.4122 0001858 204.2456 155.8690 15.17672870  3345"}}, "geometry": {"type": "Point", "coordinates": [67.614651811221, -5.7182319326510305]}}, {"type": "Feature", "properties": {"norad_id": 66765, "name": "TRANSPORTER-15 DD", "group": "last-30-days", "lat": 57.05271163286919, "lon": 55.26019184079884, "alt_km": 503.81924641411115, "timestamp": "2025-12-21T05:44:50.291301+00:00", "meta": {"OBJECT_NAME": "TRANSPORTER-15 DD", "OBJECT_ID": "2025-276DD", "EPOCH": "2025-12-20T15:15:41.898240", "MEAN_MOTION": 15.18670401, "ECCENTRICITY": 0.000176, "INCLINATION": 97.4429, "RA_OF_ASC_NODE": 66.3031, "ARG_OF_PERICENTER": 121.9725, "MEAN_ANOMALY": 238.1681, "EPHEMERIS_TYPE": 0, "CLASSIFICATION_TYPE": "U", "NORAD_CAT_ID": 66765, "ELEMENT_SET_NO": 999, "REV_AT_EPOCH": 332, "BSTAR": 0.00041233, "MEAN_MOTION_DOT": 8.483e-05, "MEAN_MOTION_DDOT": 0}, "tle": {"line1": "1 66765U 25276DD  25354.63590160  .00008483  00000+0  41233-3 0  9999", "line2": "2 66765  97.4429  66.3031 0001760 121.9725 238.1681 15.18670401  3327"}}, "geometry": {"type": "Point", "coordinates": [55.26019184079884, 57.05271163286919]}}]}